[{"OBJECT_NAME":"STARLINK-31807","OBJECT_ID":"2024-082J","EPOCH":"2026-03-09T06:22:00.363072","MEAN_MOTION":15.27586194,"ECCENTRICITY":0.00011936,"INCLINATION":42.9988,"RA_OF_ASC_NODE":142.4914,"ARG_OF_PERICENTER":213.2766,"MEAN_ANOMALY":146.8011,"EPHEMERIS_TYPE":0,"CLASSIFICATION_TYPE":"U","NORAD_CAT_ID":59639,"ELEMENT_SET_NO":999,"REV_AT_EPOCH":10474,"BSTAR":-7.2124755e-5,"MEAN_MOTION_DOT":-2.247e-5,"MEAN_MOTION_DDOT":0},{"OBJECT_NAME":"FLOCK 4G-21","OBJECT_ID":"2025-009AU","EPOCH":"2026-03-09T04:40:37.351200","MEAN_MOTION":15.28381075,"ECCENTRICITY":4.655e-5,"INCLINATION":97.4032,"RA_OF_ASC_NODE":151.1274,"ARG_OF_PERICENTER":329.5782,"MEAN_ANOMALY":30.5431,"EPHEMERIS_TYPE":0,"CLASSIFICATION_TYPE":"U","NORAD_CAT_ID":62651,"ELEMENT_SET_NO":999,"REV_AT_EPOCH":6367,"BSTAR":0.00049618643,"MEAN_MOTION_DOT":0.00013648,"MEAN_MOTION_DDOT":0}]
