STARLINK-31807          
1 59639U 24082J   26068.26528198 -.00002247  00000+0 -72125-4 0  9998
2 59639  42.9988 142.4914 0001193 213.2766 146.8011 15.27586194104745
FLOCK 4G-21             
1 62651U 25009AU  26068.19487675  .00013648  00000+0  49619-3 0  9998
2 62651  97.4032 151.1274 0000465 329.5782  30.5431 15.28381075 63677
